STARLINK-2022           
1 47643U 21012Z   24116.57832286  .00023187  00000+0  15696-2 0  9994
2 47643  53.0546 238.2159 0001423 106.1391 253.9755 15.06419448177306
